ORBCOMM FM07            
1 25119U 97084H   24151.08462949  .00001956  00000+0  62343-3 0  9992
2 25119  45.0150  43.8710 0003351  81.8322 278.2908 14.42820576386129
ORBCOMM FM03            
1 25158U 98007B   24151.56509210  .00001628  00000+0  64332-3 0  9993
2 25158 107.9713  70.7924 0047089 198.7131 161.2276 14.32265861369212
ORBCOMM FM04            
1 25159U 98007C   24151.61984849  .00001573  00000+0  62125-3 0  9992
2 25159 107.9696  73.8541 0042569 196.5492 163.4259 14.32531909369399
ORBCOMM FM17            
1 25413U 98046A   24151.42806509  .00001402  00000+0  55581-3 0  9992
2 25413  44.9951 261.4926 0001501 148.3902 211.7034 14.33248071348223
ORBCOMM FM18            
1 25414U 98046B   24151.45347505  .00001300  00000+0  49130-3 0  9992
2 25414  44.9923 188.0405 0003505 188.8144 171.2642 14.36029124349182
ORBCOMM FM19            
1 25415U 98046C   24151.52119788  .00001464  00000+0  54907-3 0  9990
2 25415  44.9932 189.1589 0002263 195.9841 317.8809 14.35867617349157
